{
  "type": "FeatureCollection",
  "features": [
    {
      "type": "Feature",
      "properties": {
        "norad_id": 41859,
        "name": "GSAT0207 (GALILEO 15)",
        "group": "gnss",
        "lat": -54.14659979969474,
        "lon": -0.8747332133202298,
        "alt_km": 23225.200357801263,
        "timestamp": "2025-12-07T22:37:43.322009+00:00",
        "meta_object_name": "GSAT0207 (GALILEO 15)",
        "meta_object_id": "2016-069A",
        "meta_epoch": "2025-12-06T22:22:57.829728",
        "meta_mean_motion": 1.70474256,
        "meta_eccentricity": 0.00021753,
        "meta_inclination": 55.3787,
        "meta_ra_of_asc_node": 106.4111,
        "meta_arg_of_pericenter": 324.2379,
        "meta_mean_anomaly": 35.7022,
        "meta_ephemeris_type": 0,
        "meta_classification_type": "U",
        "meta_norad_cat_id": 41859,
        "meta_element_set_no": 999,
        "meta_rev_at_epoch": 5612,
        "meta_bstar": 0,
        "meta_mean_motion_dot": 7e-08,
        "meta_mean_motion_ddot": 0,
        "tle_line1": "1 41859U 16069A   25340.93261377  .00000007  00000+0  00000+0 0  9996",
        "tle_line2": "2 41859  55.3787 106.4111 0002175 324.2379  35.7022  1.70474256 56122"
      },
      "geometry": {
        "type": "Point",
        "coordinates": [
          -0.8747332133202298,
          -54.14659979969474
        ]
      }
    },
    {
      "type": "Feature",
      "properties": {
        "norad_id": 41860,
        "name": "GSAT0212 (GALILEO 16)",
        "group": "gnss",
        "lat": -8.369506915823937,
        "lon": 100.53799275843322,
        "alt_km": 23218.62203435385,
        "timestamp": "2025-12-07T22:37:43.322028+00:00",
        "meta_object_name": "GSAT0212 (GALILEO 16)",
        "meta_object_id": "2016-069B",
        "meta_epoch": "2025-12-06T04:47:33.838080",
        "meta_mean_motion": 1.70474471,
        "meta_eccentricity": 0.00022225,
        "meta_inclination": 55.376,
        "meta_ra_of_asc_node": 106.4267,
        "meta_arg_of_pericenter": 32.4045,
        "meta_mean_anomaly": 327.5613,
        "meta_ephemeris_type": 0,
        "meta_classification_type": "U",
        "meta_norad_cat_id": 41860,
        "meta_element_set_no": 999,
        "meta_rev_at_epoch": 5636,
        "meta_bstar": 0,
        "meta_mean_motion_dot": 6e-08,
        "meta_mean_motion_ddot": 0,
        "tle_line1": "1 41860U 16069B   25340.19969720  .00000006  00000+0  00000+0 0  9992",
        "tle_line2": "2 41860  55.3760 106.4267 0002222  32.4045 327.5613  1.70474471 56361"
      },
      "geometry": {
        "type": "Point",
        "coordinates": [
          100.53799275843322,
          -8.369506915823937
        ]
      }
    },
    {
      "type": "Feature",
      "properties": {
        "norad_id": 41861,
        "name": "GSAT0213 (GALILEO 17)",
        "group": "gnss",
        "lat": 42.87703643278986,
        "lon": -113.47866443593996,
        "alt_km": 23222.865592419777,
        "timestamp": "2025-12-07T22:37:43.322040+00:00",
        "meta_object_name": "GSAT0213 (GALILEO 17)",
        "meta_object_id": "2016-069C",
        "meta_epoch": "2025-12-04T19:22:49.962144",
        "meta_mean_motion": 1.70474712,
        "meta_eccentricity": 0.00021375,
        "meta_inclination": 55.3775,
        "meta_ra_of_asc_node": 106.4729,
        "meta_arg_of_pericenter": 283.7545,
        "meta_mean_anomaly": 76.173,
        "meta_ephemeris_type": 0,
        "meta_classification_type": "U",
        "meta_norad_cat_id": 41861,
        "meta_element_set_no": 999,
        "meta_rev_at_epoch": 5620,
        "meta_bstar": 0,
        "meta_mean_motion_dot": 1e-07,
        "meta_mean_motion_ddot": 0,
        "tle_line1": "1 41861U 16069C   25338.80752271  .00000010  00000+0  00000+0 0  9994",
        "tle_line2": "2 41861  55.3775 106.4729 0002137 283.7545  76.1730  1.70474712 56200"
      },
      "geometry": {
        "type": "Point",
        "coordinates": [
          -113.47866443593996,
          42.87703643278986
        ]
      }
    },
    {
      "type": "Feature",
      "properties": {
        "norad_id": 41862,
        "name": "GSAT0214 (GALILEO 18)",
        "group": "gnss",
        "lat": 27.887350207446826,
        "lon": 127.78934473698276,
        "alt_km": 23219.538143480648,
        "timestamp": "2025-12-07T22:37:43.322051+00:00",
        "meta_object_name": "GSAT0214 (GALILEO 18)",
        "meta_object_id": "2016-069D",
        "meta_epoch": "2025-12-05T12:57:44.455104",
        "meta_mean_motion": 1.70474584,
        "meta_eccentricity": 0.00011763,
        "meta_inclination": 55.3762,
        "meta_ra_of_asc_node": 106.4455,
        "meta_arg_of_pericenter": 291.0864,
        "meta_mean_anomaly": 68.8522,
        "meta_ephemeris_type": 0,
        "meta_classification_type": "U",
        "meta_norad_cat_id": 41862,
        "meta_element_set_no": 999,
        "meta_rev_at_epoch": 5634,
        "meta_bstar": 0,
        "meta_mean_motion_dot": 8e-08,
        "meta_mean_motion_ddot": 0,
        "tle_line1": "1 41862U 16069D   25339.54009786  .00000008  00000+0  00000+0 0  9990",
        "tle_line2": "2 41862  55.3762 106.4455 0001176 291.0864  68.8522  1.70474584 56340"
      },
      "geometry": {
        "type": "Point",
        "coordinates": [
          127.78934473698276,
          27.887350207446826
        ]
      }
    },
    {
      "type": "Feature",
      "properties": {
        "norad_id": 42709,
        "name": "SES-15 (WAAS/PRN 133)",
        "group": "gnss",
        "lat": -0.03481634167044171,
        "lon": -72.76937865628503,
        "alt_km": 35785.15353344936,
        "timestamp": "2025-12-07T22:37:43.322065+00:00",
        "meta_object_name": "SES-15 (WAAS/PRN 133)",
        "meta_object_id": "2017-026A",
        "meta_epoch": "2025-12-07T00:33:38.721312",
        "meta_mean_motion": 1.00271321,
        "meta_eccentricity": 9.064e-05,
        "meta_inclination": 0.0191,
        "meta_ra_of_asc_node": 344.2149,
        "meta_arg_of_pericenter": 227.7225,
        "meta_mean_anomaly": 103.3651,
        "meta_ephemeris_type": 0,
        "meta_classification_type": "U",
        "meta_norad_cat_id": 42709,
        "meta_element_set_no": 999,
        "meta_rev_at_epoch": 550,
        "meta_bstar": 0,
        "meta_mean_motion_dot": 6.5e-07,
        "meta_mean_motion_ddot": 0,
        "tle_line1": "1 42709U 17026A   25341.02336483  .00000065  00000+0  00000+0 0  9991",
        "tle_line2": "2 42709   0.0191 344.2149 0000906 227.7225 103.3651  1.00271321  5500"
      },
      "geometry": {
        "type": "Point",
        "coordinates": [
          -72.76937865628503,
          -0.03481634167044171
        ]
      }
    },
    {
      "type": "Feature",
      "properties": {
        "norad_id": 42738,
        "name": "QZS-2 (QZSS/PRN 194)",
        "group": "gnss",
        "lat": -25.1988451146942,
        "lon": -148.47636074310182,
        "alt_km": 33558.96398515264,
        "timestamp": "2025-12-07T22:37:43.322079+00:00",
        "meta_object_name": "QZS-2 (QZSS/PRN 194)",
        "meta_object_id": "2017-028A",
        "meta_epoch": "2025-12-06T14:18:00.930240",
        "meta_mean_motion": 1.00284682,
        "meta_eccentricity": 0.07585895,
        "meta_inclination": 39.7243,
        "meta_ra_of_asc_node": 245.9734,
        "meta_arg_of_pericenter": 269.4135,
        "meta_mean_anomaly": 276.3271,
        "meta_ephemeris_type": 0,
        "meta_classification_type": "U",
        "meta_norad_cat_id": 42738,
        "meta_element_set_no": 999,
        "meta_rev_at_epoch": 569,
        "meta_bstar": 0,
        "meta_mean_motion_dot": -1.66e-06,
        "meta_mean_motion_ddot": 0,
        "tle_line1": "1 42738U 17028A   25340.59584410 -.00000166  00000+0  00000+0 0  9994",
        "tle_line2": "2 42738  39.7243 245.9734 0758589 269.4135 276.3271  1.00284682  5699"
      },
      "geometry": {
        "type": "Point",
        "coordinates": [
          -148.47636074310182,
          -25.1988451146942
        ]
      }
    },
    {
      "type": "Feature",
      "properties": {
        "norad_id": 42917,
        "name": "QZS-3 (QZSS/PRN 199)",
        "group": "gnss",
        "lat": -0.04270356106236446,
        "lon": -176.60779528596944,
        "alt_km": 35783.547194611325,
        "timestamp": "2025-12-07T22:37:43.322091+00:00",
        "meta_object_name": "QZS-3 (QZSS/PRN 199)",
        "meta_object_id": "2017-048A",
        "meta_epoch": "2025-12-07T02:17:38.548320",
        "meta_mean_motion": 1.00274284,
        "meta_eccentricity": 0.00022142,
        "meta_inclination": 0.0674,
        "meta_ra_of_asc_node": 212.1844,
        "meta_arg_of_pericenter": 49.1363,
        "meta_mean_anomaly": 336.2407,
        "meta_ephemeris_type": 0,
        "meta_classification_type": "U",
        "meta_norad_cat_id": 42917,
        "meta_element_set_no": 999,
        "meta_rev_at_epoch": 3033,
        "meta_bstar": 0,
        "meta_mean_motion_dot": -3.43e-06,
        "meta_mean_motion_ddot": 0,
        "tle_line1": "1 42917U 17048A   25341.09558505 -.00000343  00000+0  00000+0 0  9994",
        "tle_line2": "2 42917   0.0674 212.1844 0002214  49.1363 336.2407  1.00274284 30331"
      },
      "geometry": {
        "type": "Point",
        "coordinates": [
          -176.60779528596944,
          -0.04270356106236446
        ]
      }
    }
  ]
}